{"fetched_at":"2026-07-06T18:35:17.756Z","source":"https://celestrak.org/NORAD/elements/gp.php?GROUP=spire&FORMAT=JSON","constellation":"spire","records":[{"OBJECT_NAME":"LEMUR-2-HUBBLE-4","OBJECT_ID":"2025-135AP","EPOCH":"2026-07-05T23:07:26.941728","CLASSIFICATION_TYPE":"U","MEAN_MOTION":14.93667204,"ECCENTRICITY":0.00018403,"INCLINATION":97.7713,"RA_OF_ASC_NODE":300.6492,"ARG_OF_PERICENTER":189.8038,"MEAN_ANOMALY":170.3146,"EPHEMERIS_TYPE":0,"NORAD_CAT_ID":64565,"ELEMENT_SET_NO":999,"REV_AT_EPOCH":5667,"BSTAR":0.00014524363,"MEAN_MOTION_DOT":0.00001478,"MEAN_MOTION_DDOT":0},{"OBJECT_NAME":"LEMUR-2-SEJONG-2","OBJECT_ID":"2025-135BL","EPOCH":"2026-07-06T06:58:48.427392","CLASSIFICATION_TYPE":"U","MEAN_MOTION":14.96869936,"ECCENTRICITY":0.00030722,"INCLINATION":97.771,"RA_OF_ASC_NODE":302.1843,"ARG_OF_PERICENTER":258.557,"MEAN_ANOMALY":101.5307,"EPHEMERIS_TYPE":0,"NORAD_CAT_ID":64586,"ELEMENT_SET_NO":999,"REV_AT_EPOCH":5680,"BSTAR":0.00030934989,"MEAN_MOTION_DOT":0.0000349,"MEAN_MOTION_DDOT":0},{"OBJECT_NAME":"LEMUR-2-HUBBLE-5","OBJECT_ID":"2025-135BT","EPOCH":"2026-07-05T20:12:00.057312","CLASSIFICATION_TYPE":"U","MEAN_MOTION":14.94193186,"ECCENTRICITY":0.00040895,"INCLINATION":97.7733,"RA_OF_ASC_NODE":301.1878,"ARG_OF_PERICENTER":276.8419,"MEAN_ANOMALY":83.2336,"EPHEMERIS_TYPE":0,"NORAD_CAT_ID":64840,"ELEMENT_SET_NO":999,"REV_AT_EPOCH":5669,"BSTAR":0.00015085372,"MEAN_MOTION_DOT":0.00001559,"MEAN_MOTION_DDOT":0},{"OBJECT_NAME":"LEMUR-2-KARENDARRELL","OBJECT_ID":"2025-135BU","EPOCH":"2026-07-05T20:38:36.861504","CLASSIFICATION_TYPE":"U","MEAN_MOTION":15.00409594,"ECCENTRICITY":0.00114804,"INCLINATION":97.7697,"RA_OF_ASC_NODE":303.0409,"ARG_OF_PERICENTER":134.698,"MEAN_ANOMALY":225.518,"EPHEMERIS_TYPE":0,"NORAD_CAT_ID":64841,"ELEMENT_SET_NO":999,"REV_AT_EPOCH":5681,"BSTAR":0.00069650683,"MEAN_MOTION_DOT":0.00008711,"MEAN_MOTION_DDOT":0},{"OBJECT_NAME":"LEMUR-2-LUCILLE-ROSE","OBJECT_ID":"2025-135BV","EPOCH":"2026-07-05T18:24:18.334368","CLASSIFICATION_TYPE":"U","MEAN_MOTION":15.0041222,"ECCENTRICITY":0.00136753,"INCLINATION":97.7723,"RA_OF_ASC_NODE":302.9819,"ARG_OF_PERICENTER":218.3295,"MEAN_ANOMALY":141.6958,"EPHEMERIS_TYPE":0,"NORAD_CAT_ID":65403,"ELEMENT_SET_NO":999,"REV_AT_EPOCH":5142,"BSTAR":0.00078739039,"MEAN_MOTION_DOT":0.00009864,"MEAN_MOTION_DDOT":0},{"OBJECT_NAME":"LEMUR-2-AFFIE-WAUWIE","OBJECT_ID":"2025-248C","EPOCH":"2026-07-05T19:47:57.109920","CLASSIFICATION_TYPE":"U","MEAN_MOTION":15.27976863,"ECCENTRICITY":0.00083636,"INCLINATION":45.3926,"RA_OF_ASC_NODE":13.9564,"ARG_OF_PERICENTER":202.7682,"MEAN_ANOMALY":157.2838,"EPHEMERIS_TYPE":0,"NORAD_CAT_ID":66295,"ELEMENT_SET_NO":999,"REV_AT_EPOCH":3744,"BSTAR":0.00082701902,"MEAN_MOTION_DOT":0.00022785,"MEAN_MOTION_DDOT":0},{"OBJECT_NAME":"LEMUR-2-DEANANDMAEVE","OBJECT_ID":"2025-276N","EPOCH":"2026-07-06T03:27:54.885600","CLASSIFICATION_TYPE":"U","MEAN_MOTION":15.19983006,"ECCENTRICITY":0.00042461,"INCLINATION":97.4199,"RA_OF_ASC_NODE":260.3076,"ARG_OF_PERICENTER":297.3184,"MEAN_ANOMALY":62.7619,"EPHEMERIS_TYPE":0,"NORAD_CAT_ID":66678,"ELEMENT_SET_NO":999,"REV_AT_EPOCH":3329,"BSTAR":0.00035109511,"MEAN_MOTION_DOT":0.00007494,"MEAN_MOTION_DDOT":0},{"OBJECT_NAME":"LEMUR-2-STAS-GORBUK","OBJECT_ID":"2025-276W","EPOCH":"2026-07-06T03:55:24.463776","CLASSIFICATION_TYPE":"U","MEAN_MOTION":15.19595995,"ECCENTRICITY":0.00035149,"INCLINATION":97.4233,"RA_OF_ASC_NODE":260.3793,"ARG_OF_PERICENTER":294.673,"MEAN_ANOMALY":65.4139,"EPHEMERIS_TYPE":0,"NORAD_CAT_ID":66686,"ELEMENT_SET_NO":999,"REV_AT_EPOCH":3329,"BSTAR":0.00030714912,"MEAN_MOTION_DOT":0.00006473,"MEAN_MOTION_DDOT":0},{"OBJECT_NAME":"LEMUR-2-TEODOR","OBJECT_ID":"2025-276DG","EPOCH":"2026-07-06T04:36:46.340928","CLASSIFICATION_TYPE":"U","MEAN_MOTION":15.21272381,"ECCENTRICITY":0.00023567,"INCLINATION":97.4139,"RA_OF_ASC_NODE":260.668,"ARG_OF_PERICENTER":97.3596,"MEAN_ANOMALY":262.7907,"EPHEMERIS_TYPE":0,"NORAD_CAT_ID":66768,"ELEMENT_SET_NO":999,"REV_AT_EPOCH":3333,"BSTAR":0.00026697252,"MEAN_MOTION_DOT":0.00005899,"MEAN_MOTION_DDOT":0},{"OBJECT_NAME":"LEMUR-2-LAILA","OBJECT_ID":"2025-276DQ","EPOCH":"2026-07-06T03:55:12.377280","CLASSIFICATION_TYPE":"U","MEAN_MOTION":15.21496473,"ECCENTRICITY":0.00028443,"INCLINATION":97.4163,"RA_OF_ASC_NODE":260.7722,"ARG_OF_PERICENTER":107.6963,"MEAN_ANOMALY":252.4583,"EPHEMERIS_TYPE":0,"NORAD_CAT_ID":66776,"ELEMENT_SET_NO":999,"REV_AT_EPOCH":3333,"BSTAR":0.00029452458,"MEAN_MOTION_DOT":0.00006559,"MEAN_MOTION_DDOT":0},{"OBJECT_NAME":"LEMUR-2-CELIJO-SB-PK","OBJECT_ID":"2025-276DW","EPOCH":"2026-07-06T04:20:19.156992","CLASSIFICATION_TYPE":"U","MEAN_MOTION":15.00221504,"ECCENTRICITY":0.00075045,"INCLINATION":97.52,"RA_OF_ASC_NODE":257.3328,"ARG_OF_PERICENTER":86.383,"MEAN_ANOMALY":273.8252,"EPHEMERIS_TYPE":0,"NORAD_CAT_ID":66781,"ELEMENT_SET_NO":999,"REV_AT_EPOCH":2547,"BSTAR":0.00054133268,"MEAN_MOTION_DOT":0.0000672,"MEAN_MOTION_DDOT":0},{"OBJECT_NAME":"LEMUR-2-FINNIAN","OBJECT_ID":"2025-276DX","EPOCH":"2026-07-05T18:04:14.786688","CLASSIFICATION_TYPE":"U","MEAN_MOTION":15.00540875,"ECCENTRICITY":0.00082842,"INCLINATION":97.5345,"RA_OF_ASC_NODE":257.1647,"ARG_OF_PERICENTER":32.7204,"MEAN_ANOMALY":327.4532,"EPHEMERIS_TYPE":0,"NORAD_CAT_ID":66782,"ELEMENT_SET_NO":999,"REV_AT_EPOCH":2278,"BSTAR":0.00031192771,"MEAN_MOTION_DOT":0.00003879,"MEAN_MOTION_DDOT":0},{"OBJECT_NAME":"LEMUR-2-STARLIGHT","OBJECT_ID":"2025-276DY","EPOCH":"2026-07-06T04:37:33.812544","CLASSIFICATION_TYPE":"U","MEAN_MOTION":14.99280589,"ECCENTRICITY":0.00146803,"INCLINATION":97.5223,"RA_OF_ASC_NODE":257.1818,"ARG_OF_PERICENTER":73.3562,"MEAN_ANOMALY":286.9272,"EPHEMERIS_TYPE":0,"NORAD_CAT_ID":66783,"ELEMENT_SET_NO":999,"REV_AT_EPOCH":3304,"BSTAR":0.00059904999,"MEAN_MOTION_DOT":0.00007274,"MEAN_MOTION_DDOT":0},{"OBJECT_NAME":"LEMUR-2-TARTIFLETTE","OBJECT_ID":"2025-276DZ","EPOCH":"2026-07-06T04:35:09.096864","CLASSIFICATION_TYPE":"U","MEAN_MOTION":14.99273385,"ECCENTRICITY":0.00137039,"INCLINATION":97.5224,"RA_OF_ASC_NODE":257.188,"ARG_OF_PERICENTER":81.1242,"MEAN_ANOMALY":279.1533,"EPHEMERIS_TYPE":0,"NORAD_CAT_ID":66784,"ELEMENT_SET_NO":999,"REV_AT_EPOCH":3304,"BSTAR":0.00048588365,"MEAN_MOTION_DOT":0.00005885,"MEAN_MOTION_DDOT":0},{"OBJECT_NAME":"LEMUR-2-VUKASIN","OBJECT_ID":"2025-276EA","EPOCH":"2026-07-05T04:02:30.922944","CLASSIFICATION_TYPE":"U","MEAN_MOTION":15.0045712,"ECCENTRICITY":0.0004613,"INCLINATION":97.5256,"RA_OF_ASC_NODE":256.5396,"ARG_OF_PERICENTER":82.297,"MEAN_ANOMALY":277.8778,"EPHEMERIS_TYPE":0,"NORAD_CAT_ID":66785,"ELEMENT_SET_NO":999,"REV_AT_EPOCH":3284,"BSTAR":0.00021869,"MEAN_MOTION_DOT":0.00002695,"MEAN_MOTION_DDOT":0},{"OBJECT_NAME":"LEMUR-2-HOTSPUR-TOM","OBJECT_ID":"2025-276EB","EPOCH":"2026-07-06T04:26:16.401120","CLASSIFICATION_TYPE":"U","MEAN_MOTION":14.99179411,"ECCENTRICITY":0.00139873,"INCLINATION":97.5216,"RA_OF_ASC_NODE":257.1593,"ARG_OF_PERICENTER":72.3986,"MEAN_ANOMALY":287.8764,"EPHEMERIS_TYPE":0,"NORAD_CAT_ID":66786,"ELEMENT_SET_NO":999,"REV_AT_EPOCH":3297,"BSTAR":0.00051888665,"MEAN_MOTION_DOT":0.00006274,"MEAN_MOTION_DDOT":0}]}
